<?xml version="1.0" encoding="UTF-8"?>
<ndm xmlns:xsi="http://www.w3.org/2001/XMLSchema-instance" xsi:noNamespaceSchemaLocation="https://sanaregistry.org/r/ndmxml_unqualified/ndmxml-2.0.0-master-2.0.xsd">
<omm id="CCSDS_OMM_VERS" version="2.0">
<header><CREATION_DATE/><ORIGINATOR/></header><body><segment><metadata><OBJECT_NAME>IRIDIUM 7</OBJECT_NAME><OBJECT_ID>1997-020B</OBJECT_ID><CENTER_NAME>EARTH</CENTER_NAME><REF_FRAME>TEME</REF_FRAME><TIME_SYSTEM>UTC</TIME_SYSTEM><MEAN_ELEMENT_THEORY>SGP4</MEAN_ELEMENT_THEORY></metadata><data><meanElements><EPOCH>2024-08-21T16:35:40.427232</EPOCH><MEAN_MOTION>14.35368914</MEAN_MOTION><ECCENTRICITY>.0002341</ECCENTRICITY><INCLINATION>86.3961</INCLINATION><RA_OF_ASC_NODE>302.4024</RA_OF_ASC_NODE><ARG_OF_PERICENTER>87.3572</ARG_OF_PERICENTER><MEAN_ANOMALY>272.7892</MEAN_ANOMALY></meanElements><tleParameters><EPHEMERIS_TYPE>0</EPHEMERIS_TYPE><CLASSIFICATION_TYPE>U</CLASSIFICATION_TYPE><NORAD_CAT_ID>24793</NORAD_CAT_ID><ELEMENT_SET_NO>999</ELEMENT_SET_NO><REV_AT_EPOCH>42892</REV_AT_EPOCH><BSTAR>.37382E-3</BSTAR><MEAN_MOTION_DOT>.1091E-4</MEAN_MOTION_DOT><MEAN_MOTION_DDOT>0</MEAN_MOTION_DDOT></tleParameters></data></segment></body></omm>
<omm id="CCSDS_OMM_VERS" version="2.0">
<header><CREATION_DATE/><ORIGINATOR/></header><body><segment><metadata><OBJECT_NAME>IRIDIUM 4</OBJECT_NAME><OBJECT_ID>1997-020E</OBJECT_ID><CENTER_NAME>EARTH</CENTER_NAME><REF_FRAME>TEME</REF_FRAME><TIME_SYSTEM>UTC</TIME_SYSTEM><MEAN_ELEMENT_THEORY>SGP4</MEAN_ELEMENT_THEORY></metadata><data><meanElements><EPOCH>2024-08-21T17:24:59.413824</EPOCH><MEAN_MOTION>14.36296182</MEAN_MOTION><ECCENTRICITY>.0002371</ECCENTRICITY><INCLINATION>86.3952</INCLINATION><RA_OF_ASC_NODE>299.4615</RA_OF_ASC_NODE><ARG_OF_PERICENTER>93.2102</ARG_OF_PERICENTER><MEAN_ANOMALY>266.9366</MEAN_ANOMALY></meanElements><tleParameters><EPHEMERIS_TYPE>0</EPHEMERIS_TYPE><CLASSIFICATION_TYPE>U</CLASSIFICATION_TYPE><NORAD_CAT_ID>24796</NORAD_CAT_ID><ELEMENT_SET_NO>999</ELEMENT_SET_NO><REV_AT_EPOCH>42947</REV_AT_EPOCH><BSTAR>.31606E-3</BSTAR><MEAN_MOTION_DOT>.943E-5</MEAN_MOTION_DOT><MEAN_MOTION_DDOT>0</MEAN_MOTION_DDOT></tleParameters></data></segment></body></omm>
<omm id="CCSDS_OMM_VERS" version="2.0">
<header><CREATION_DATE/><ORIGINATOR/></header><body><segment><metadata><OBJECT_NAME>IRIDIUM 911</OBJECT_NAME><OBJECT_ID>1997-030G</OBJECT_ID><CENTER_NAME>EARTH</CENTER_NAME><REF_FRAME>TEME</REF_FRAME><TIME_SYSTEM>UTC</TIME_SYSTEM><MEAN_ELEMENT_THEORY>SGP4</MEAN_ELEMENT_THEORY></metadata><data><meanElements><EPOCH>2024-08-21T19:26:14.995392</EPOCH><MEAN_MOTION>14.46765928</MEAN_MOTION><ECCENTRICITY>.0014895</ECCENTRICITY><INCLINATION>86.4502</INCLINATION><RA_OF_ASC_NODE>330.1358</RA_OF_ASC_NODE><ARG_OF_PERICENTER>24.1558</ARG_OF_PERICENTER><MEAN_ANOMALY>336.0340</MEAN_ANOMALY></meanElements><tleParameters><EPHEMERIS_TYPE>0</EPHEMERIS_TYPE><CLASSIFICATION_TYPE>U</CLASSIFICATION_TYPE><NORAD_CAT_ID>24842</NORAD_CAT_ID><ELEMENT_SET_NO>999</ELEMENT_SET_NO><REV_AT_EPOCH>43176</REV_AT_EPOCH><BSTAR>.52167E-3</BSTAR><MEAN_MOTION_DOT>.1909E-4</MEAN_MOTION_DOT><MEAN_MOTION_DDOT>0</MEAN_MOTION_DDOT></tleParameters></data></segment></body></omm>
<omm id="CCSDS_OMM_VERS" version="2.0">
<header><CREATION_DATE/><ORIGINATOR/></header><body><segment><metadata><OBJECT_NAME>IRIDIUM 17</OBJECT_NAME><OBJECT_ID>1997-034B</OBJECT_ID><CENTER_NAME>EARTH</CENTER_NAME><REF_FRAME>TEME</REF_FRAME><TIME_SYSTEM>UTC</TIME_SYSTEM><MEAN_ELEMENT_THEORY>SGP4</MEAN_ELEMENT_THEORY></metadata><data><meanElements><EPOCH>2024-08-21T20:55:01.877664</EPOCH><MEAN_MOTION>14.37164112</MEAN_MOTION><ECCENTRICITY>.0000459</ECCENTRICITY><INCLINATION>86.4006</INCLINATION><RA_OF_ASC_NODE>0.6034</RA_OF_ASC_NODE><ARG_OF_PERICENTER>84.7660</ARG_OF_PERICENTER><MEAN_ANOMALY>275.3590</MEAN_ANOMALY></meanElements><tleParameters><EPHEMERIS_TYPE>0</EPHEMERIS_TYPE><CLASSIFICATION_TYPE>U</CLASSIFICATION_TYPE><NORAD_CAT_ID>24870</NORAD_CAT_ID><ELEMENT_SET_NO>999</ELEMENT_SET_NO><REV_AT_EPOCH>42058</REV_AT_EPOCH><BSTAR>.53417E-3</BSTAR><MEAN_MOTION_DOT>.1607E-4</MEAN_MOTION_DOT><MEAN_MOTION_DDOT>0</MEAN_MOTION_DDOT></tleParameters></data></segment></body></omm>
<omm id="CCSDS_OMM_VERS" version="2.0">
<header><CREATION_DATE/><ORIGINATOR/></header><body><segment><metadata><OBJECT_NAME>IRIDIUM 920</OBJECT_NAME><OBJECT_ID>1997-034C</OBJECT_ID><CENTER_NAME>EARTH</CENTER_NAME><REF_FRAME>TEME</REF_FRAME><TIME_SYSTEM>UTC</TIME_SYSTEM><MEAN_ELEMENT_THEORY>SGP4</MEAN_ELEMENT_THEORY></metadata><data><meanElements><EPOCH>2024-08-21T22:03:39.504672</EPOCH><MEAN_MOTION>14.40879073</MEAN_MOTION><ECCENTRICITY>.0011248</ECCENTRICITY><INCLINATION>86.4025</INCLINATION><RA_OF_ASC_NODE>340.5201</RA_OF_ASC_NODE><ARG_OF_PERICENTER>0.1849</ARG_OF_PERICENTER><MEAN_ANOMALY>359.9353</MEAN_ANOMALY></meanElements><tleParameters><EPHEMERIS_TYPE>0</EPHEMERIS_TYPE><CLASSIFICATION_TYPE>U</CLASSIFICATION_TYPE><NORAD_CAT_ID>24871</NORAD_CAT_ID><ELEMENT_SET_NO>999</ELEMENT_SET_NO><REV_AT_EPOCH>42373</REV_AT_EPOCH><BSTAR>.43117E-3</BSTAR><MEAN_MOTION_DOT>.1402E-4</MEAN_MOTION_DOT><MEAN_MOTION_DDOT>0</MEAN_MOTION_DDOT></tleParameters></data></segment></body></omm>

</ndm>
