IRIDIUM 7               
1 24793U 97020B   24234.69144013  .00001091  00000+0  37382-3 0  9992
2 24793  86.3961 302.4024 0002341  87.3572 272.7892 14.35368914428923
IRIDIUM 4               
1 24796U 97020E   24234.72568766  .00000943  00000+0  31606-3 0  9992
2 24796  86.3952 299.4615 0002371  93.2102 266.9366 14.36296182429475
IRIDIUM 911             
1 24842U 97030G   24234.80989578  .00001909  00000+0  52167-3 0  9990
2 24842  86.4502 330.1358 0014895  24.1558 336.0340 14.46765928431764
IRIDIUM 17              
1 24870U 97034B   24234.87154951  .00001607  00000+0  53417-3 0  9995
2 24870  86.4006   0.6034 0000459  84.7660 275.3590 14.37164112420589
IRIDIUM 920             
1 24871U 97034C   24234.91920723  .00001402  00000+0  43117-3 0  9998
2 24871  86.4025 340.5201 0011248   0.1849 359.9353 14.40879073423731
